IRIDIUM 126             
1 42809U 17039G   25219.81824530  .00000242  00000+0  79378-4 0  9998
2 42809  86.3992 124.6665 0002032  79.9931 280.1494 14.34216915425046
IRIDIUM 124             
1 42810U 17039H   25220.57829709  .00000266  00000+0  72968-4 0  9992
2 42810  86.4447  61.0504 0002361  94.8131 265.3340 14.43277698430027
IRIDIUM 128             
1 42811U 17039J   25220.57642102  .00000024  00000+0  16195-5 0  9996
2 42811  86.4028 155.8306 0002275  93.3834 266.7622 14.34217691425178
IRIDIUM 121             
1 42812U 17039K   25220.46517006  .00000234  00000+0  76464-4 0  9996
2 42812  86.3991 124.4218 0002275  87.5705 272.5751 14.34220363425003
IRIDIUM 133             
1 42955U 17061A   25220.53836516  .00000018  00000+0 -76116-6 0  9994
2 42955  86.4030 155.9563 0002210  85.3840 274.7608 14.34217651409961
IRIDIUM 100             
1 42956U 17061B   25220.53202124  .00000192  00000+0  61322-4 0  9990
2 42956  86.4027 155.8850 0002103  88.1125 272.0311 14.34218053409963
IRIDIUM 122             
1 42957U 17061C   25220.57007768  .00000049  00000+0  10544-4 0  9993
2 42957  86.4027 155.8684 0002165  84.5348 275.6094 14.34217899409979
IRIDIUM 129             
1 42958U 17061D   25220.52568024  .00000010  00000+0 -33966-5 0  9999
2 42958  86.4031 155.9506 0002356  74.3114 285.8341 14.34217694409981
